// AST SpaceMobile TLE data — regenerate with ./update-tles.sh
const TLE_DATA = {
 "fetched": "2026-07-22T08:35:33Z",
 "tles": {
  "SPACEMOBILE-003": [
   "1 61045U 24163A   26201.99683206  .00002028  00000+0  10564-3 0  9996",
   "2 61045  52.9677 153.9638 0004157 213.3860 146.6872 15.20726769102911"
  ],
  "SPACEMOBILE-005": [
   "1 61046U 24163B   26202.57178825 -.00003521  00000+0 -14344-3 0  9999",
   "2 61046  52.9742 151.2755 0008550 213.5798 146.4656 15.20673022102998"
  ],
  "SPACEMOBILE-001": [
   "1 61047U 24163C   26201.25568385 -.00000135  00000+0  86599-5 0  9998",
   "2 61047  52.9710 157.0335 0006953 209.4162 150.6442 15.20700764102798"
  ],
  "SPACEMOBILE-002": [
   "1 61048U 24163D   26202.15995894  .00014941  00000+0  68857-3 0  9992",
   "2 61048  52.9778 152.9178 0004354 211.0455 149.0283 15.20486096102939"
  ],
  "SPACEMOBILE-004": [
   "1 61049U 24163E   26202.27362846  .00015015  00000+0  68855-3 0  9992",
   "2 61049  52.9720 152.1723 0005157 251.3714 108.6720 15.20649512102955"
  ],
  "SPACEMOBILE-001 DEB": [
   "1 62369U 24163F   26202.16752073  .00007442  00000+0  22357-3 0  9993",
   "2 62369  52.9938 119.4539 0005740 275.4913  84.5433 15.35459804 91723"
  ],
  "SPACEMOBILE-002 DEB": [
   "1 62370U 24163G   26202.04702939  .00014725  00000+0  32674-3 0  9993",
   "2 62370  52.9421 103.7546 0004821 307.9607  52.0961 15.43968788103596"
  ],
  "SPACEMOBILE-003 DEB": [
   "1 62371U 24163H   26202.15431835  .00016331  00000+0  38947-3 0  9994",
   "2 62371  52.9698 110.2606 0005455 258.9407 101.0983 15.41714336 97126"
  ],
  "SPACEMOBILE-004 DEB": [
   "1 62372U 24163J   26202.43553129  .00011453  00000+0  28393-3 0  9991",
   "2 62372  52.9839 108.6263 0002878 290.7677  69.3017 15.40878684100230"
  ],
  "SPACEMOBILE-005 DEB": [
   "1 62373U 24163K   26202.19259831  .00008344  00000+0  25507-3 0  9997",
   "2 62373  52.9741 124.2544 0005495 252.2830 107.7571 15.34732146103343"
  ],
  "SPACEMOBILE-006": [
   "1 67232U 25309A   26202.19960577  .00002319  00000+0  12568-3 0  9994",
   "2 67232  52.9948 175.8266 0009504 235.7559 124.2535 15.18677771 31767"
  ],
  "SPACEMOBILE-008": [
   "1 69589U 26139A   26202.42904412  .00000319  00000+0  34924-4 0  9994",
   "2 69589  52.9953 107.1053 0005297  71.2526 288.9040 15.12809290  5165"
  ],
  "SPACEMOBILE-009": [
   "1 69590U 26139B   26202.43143916  .00001219  00000+0  85768-4 0  9993",
   "2 69590  52.9944 107.1141 0005567  67.5981 292.5599 15.12709273  5168"
  ],
  "SPACEMOBILE-010": [
   "1 69591U 26139C   26202.43522734  .00001174  00000+0  83597-4 0  9991",
   "2 69591  52.9950 107.1407 0005561  60.2042 299.9501 15.12546197  5172"
  ]
 }
};
